*******************************************************************************
Ephemeris / WWW_USER Mon Dec  9 18:36:21 2019 Pasadena, USA      / Horizons    
*******************************************************************************
Target body name: Earth (399)                     {source: DE431mx}
Center body name: Sun (10)                        {source: DE431mx}
Center-site name: BODY CENTER
*******************************************************************************
Start time      : A.D. 2019-Oct-15 00:00:00.0000 TDB
Stop  time      : A.D. 2030-Jul-11 00:00:00.0000 TDB
Step-size       : 1440 minutes
*******************************************************************************
Center geodetic : 0.00000000,0.00000000,0.0000000 {E-lon(deg),Lat(deg),Alt(km)}
Center cylindric: 0.00000000,0.00000000,0.0000000 {E-lon(deg),Dxy(km),Dz(km)}
Center radii    : 696000.0 x 696000.0 x 696000.0 k{Equator, meridian, pole}    
Output units    : KM-S                                                         
Output type     : GEOMETRIC cartesian states
Output format   : 2 (position and velocity)
Reference frame : ICRF/J2000.0                                                 
Coordinate systm: Ecliptic and Mean Equinox of Reference Epoch                 
*******************************************************************************
            JDTDB,            Calendar Date (TDB),                      X,                      Y,                      Z,                     VX,                     VY,                     VZ,
**************************************************************************************************************************************************************************************************
$$SOE
2461543.500000000, A.D. 2027-May-18 00:00:00.0000, -8.354919064007042E+07, -1.261288303659862E+08,  8.830615616649389E+03,  2.434397195504756E+01, -1.655171081034043E+01,  1.280103633436447E-03,
2461544.500000000, A.D. 2027-May-19 00:00:00.0000, -8.143412699539246E+07, -1.275408554964547E+08,  8.929545035570860E+03,  2.461470632645053E+01, -1.613340371838168E+01,  1.008826890419812E-03,
2461545.500000000, A.D. 2027-May-20 00:00:00.0000, -7.929596398140876E+07, -1.289165699482690E+08,  9.004937240011990E+03,  2.487868294383824E+01, -1.571118716445987E+01,  7.373841033775363E-04,
2461546.500000000, A.D. 2027-May-21 00:00:00.0000, -7.713528502728684E+07, -1.302556361433792E+08,  9.057308878481388E+03,  2.513590703465529E+01, -1.528506441023724E+01,  4.778240706784231E-04,
2461547.500000000, A.D. 2027-May-22 00:00:00.0000, -7.495267437880830E+07, -1.315577165604620E+08,  9.088147922962904E+03,  2.538635480895166E+01, -1.485503491890651E+01,  2.405129797775629E-04,
2461548.500000000, A.D. 2027-May-23 00:00:00.0000, -7.274871948103963E+07, -1.328224737465704E+08,  9.099754270881414E+03,  2.562997672585596E+01, -1.442110188811552E+01,  3.385559356772205E-05,
2461549.500000000, A.D. 2027-May-24 00:00:00.0000, -7.052401299445654E+07, -1.340495708818158E+08,  9.095067820139229E+03,  2.586670251844335E+01, -1.398327740757999E+01, -1.357212643773309E-04,
2461550.500000000, A.D. 2027-May-25 00:00:00.0000, -6.827915434591566E+07, -1.352386726720932E+08,  9.077504519157112E+03,  2.609644671897498E+01, -1.354158489006271E+01, -2.635811596860549E-04,
2461551.500000000, A.D. 2027-May-26 00:00:00.0000, -6.601475082557387E+07, -1.363894463415965E+08,  9.050814087666571E+03,  2.631911345887349E+01, -1.309605903956076E+01, -3.465814401302225E-04,
2461552.500000000, A.D. 2027-May-27 00:00:00.0000, -6.373141833535838E+07, -1.375015625412904E+08,  9.018964258208871E+03,  2.653459961117349E+01, -1.264674408705738E+01, -3.827732488543845E-04,
2461553.500000000, A.D. 2027-May-28 00:00:00.0000, -6.142978195845649E+07, -1.385746960653388E+08,  8.986047526195645E+03,  2.674279573346395E+01, -1.219369128835277E+01, -3.711954276628404E-04,
2461554.500000000, A.D. 2027-May-29 00:00:00.0000, -5.911047654946718E+07, -1.396085263596103E+08,  8.956198679223657E+03,  2.694358465044111E+01, -1.173695680844506E+01, -3.118430109019243E-04,
2461555.500000000, A.D. 2027-May-30 00:00:00.0000, -5.677414754252244E+07, -1.406027379075746E+08,  8.933505220301449E+03,  2.713683789873945E+01, -1.127660120947642E+01, -2.058715615556039E-04,
2461556.500000000, A.D. 2027-May-31 00:00:00.0000, -5.442145213517366E+07, -1.415570206877987E+08,  8.921888617619872E+03,  2.732241075851227E+01, -1.081269183916908E+01, -5.607018064734959E-05,
2461557.500000000, A.D. 2027-Jun-01 00:00:00.0000, -5.205306091245462E+07, -1.424710710082525E+08,  8.924933585613966E+03,  2.750013736169344E+01, -1.034530934297304E+01,  1.324191410851938E-04,
2461558.500000000, A.D. 2027-Jun-02 00:00:00.0000, -4.966965980311149E+07, -1.433445931086589E+08,  8.945648621767759E+03,  2.766982840926799E+01, -9.874558945378006E+00,  3.512625084804988E-04,
2461559.500000000, A.D. 2027-Jun-03 00:00:00.0000, -4.727195199705911E+07, -1.441773019193593E+08,  8.986158476352692E+03,  2.783127497265987E+01, -9.400585595531691E+00,  5.882594768489291E-04,
2461560.500000000, A.D. 2027-Jun-04 00:00:00.0000, -4.486065914614654E+07, -1.449689271780061E+08,  9.047360900841653E+03,  2.798426172051108E+01, -8.923589393199588E+00,  8.272723467483978E-04,
2461561.500000000, A.D. 2027-Jun-05 00:00:00.0000, -4.243652096839732E+07, -1.457192186656635E+08,  9.128620268784463E+03,  2.812859043183751E+01, -8.443834824525297E+00,  1.049212831556012E-03,
2461562.500000000, A.D. 2027-Jun-06 00:00:00.0000, -4.000029250654773E+07, -1.464279517072549E+08,  9.227599882304668E+03,  2.826410958161476E+01, -7.961646605057597E+00,  1.234250563588279E-03,
2461563.500000000, A.D. 2027-Jun-07 00:00:00.0000, -3.755273889765630E+07, -1.470949315876523E+08,  9.340325184710324E+03,  2.839074050327911E+01, -7.477388750238020E+00,  1.364825974036421E-03,
2461564.500000000, A.D. 2027-Jun-08 00:00:00.0000, -3.509462842188947E+07, -1.477199955612886E+08,  9.461508502647281E+03,  2.850848957140933E+01, -6.991431208257765E+00,  1.428506926743900E-03,
2461565.500000000, A.D. 2027-Jun-09 00:00:00.0000, -3.262672531587230E+07, -1.483030118256121E+08,  9.585076246000826E+03,  2.861744135960603E+01, -6.504115041620413E+00,  1.419682703172054E-03,
2461566.500000000, A.D. 2027-Jun-10 00:00:00.0000, -3.014978389187148E+07, -1.488438758468000E+08,  9.704773292191327E+03,  2.871773654166795E+01, -6.015727474615207E+00,  1.339647933511490E-03,
2461567.500000000, A.D. 2027-Jun-11 00:00:00.0000, -2.766454488878860E+07, -1.493425051753643E+08,  9.814713696122169E+03,  2.880954406080547E+01, -5.526492112880364E+00,  1.195376281304394E-03,
2461568.500000000, A.D. 2027-Jun-12 00:00:00.0000, -2.517173413577424E+07, -1.497988340208562E+08,  9.909794290915132E+03,  2.889303661648860E+01, -5.036572352244288E+00,  9.976998010912119E-04,
2461569.500000000, A.D. 2027-Jun-13 00:00:00.0000, -2.267206300931582E+07, -1.502128084836416E+08,  9.985949922241271E+03,  2.896837398442023E+01, -4.546082124082895E+00,  7.595496794787771E-04,
2461570.500000000, A.D. 2027-Jun-14 00:00:00.0000, -2.016622998247713E+07, -1.505843828236999E+08,  1.004027282018214E+04,  2.903569413888639E+01, -4.055098395857557E+00,  4.945989758842195E-04,
2461571.500000000, A.D. 2027-Jun-15 00:00:00.0000, -1.765492268610122E+07, -1.509135167596750E+08,  1.007103440237790E+04,  2.909510981921831E+01, -3.563672197062553E+00,  2.163509921579987E-04,
2461572.500000000, A.D. 2027-Jun-16 00:00:00.0000, -1.513882012610030E+07, -1.512001736175447E+08,  1.007764378619194E+04,  2.914670797965217E+01, -3.071837251531738E+00, -6.243785315018791E-05,
2461573.500000000, A.D. 2027-Jun-17 00:00:00.0000, -1.261859488876263E+07, -1.514443191340476E+08,  1.006056588933617E+04,  2.919055042240305E+01, -2.579616623760407E+00, -3.301364415079222E-04,
2461574.500000000, A.D. 2027-Jun-18 00:00:00.0000, -1.009491526852774E+07, -1.516459207763313E+08,  1.002121189612150E+04,  2.922667491107354E+01, -2.087028140743591E+00, -5.765104953933120E-04,
2461575.500000000, A.D. 2027-Jun-19 00:00:00.0000, -7.568447281587634E+06, -1.518049474975720E+08,  9.961809481278062E+03,  2.925509672478405E+01, -1.594089114711625E+00, -7.929210647250606E-04,
2461576.500000000, A.D. 2027-Jun-20 00:00:00.0000, -5.039856519607171E+06, -1.519213698754703E+08,  9.885259191006422E+03,  2.927581083207783E+01, -1.100820466385989E+00, -9.724435833465273E-04,
2461577.500000000, A.D. 2027-Jun-21 00:00:00.0000, -2.509809786097502E+06, -1.519951605735199E+08,  9.794984623759985E+03,  2.928879473398447E+01, -6.072500193924719E-01, -1.109889971392081E-03,
2461578.500000000, A.D. 2027-Jun-22 00:00:00.0000,  2.102353414653232E+04, -1.520262950392733E+08,  9.694785103678703E+03,  2.929401173436234E+01, -1.134146441378486E-01, -1.201730337531633E-03,
2461579.500000000, A.D. 2027-Jun-23 00:00:00.0000,  2.551970388996754E+06, -1.520147523308753E+08,  9.588698711782694E+03,  2.929141412911207E+01,  3.806389242725856E-01, -1.245937833900590E-03,
2461580.500000000, A.D. 2027-Jun-24 00:00:00.0000,  5.082353222298950E+06, -1.519605159600831E+08,  9.480880318701267E+03,  2.928094568310831E+01,  8.748544742582601E-01, -1.241806665410128E-03,
2461581.500000000, A.D. 2027-Jun-25 00:00:00.0000,  7.611489298996477E+06, -1.518635746648254E+08,  9.375494119890034E+03,  2.926254281498401E+01,  1.369167458241755E+00, -1.189810336732766E-03,
2461582.500000000, A.D. 2027-Jun-26 00:00:00.0000,  1.013869006206395E+07, -1.517239230769522E+08,  9.276614073947072E+03,  2.923613410805682E+01,  1.863506130096976E+00, -1.091572307700073E-03,
2461583.500000000, A.D. 2027-Jun-27 00:00:00.0000,  1.266326037123645E+07, -1.515415623272263E+08,  9.188119607061148E+03,  2.920163808686574E+01,  2.357791674940014E+00, -9.500146379529673E-04,
2461584.500000000, A.D. 2027-Jun-28 00:00:00.0000,  1.518449748741914E+07, -1.513165007251185E+08,  9.113569057509303E+03,  2.915895967328291E+01,  2.851936138381249E+00, -7.697292287254243E-04,
